NORAD_CAT_ID,OBJECT_NAME,OBJECT_TYPE,EPOCH,MEAN_MOTION,ECCENTRICITY,INCLINATION,RA_OF_ASC_NODE,ARG_OF_PERICENTER,MEAN_ANOMALY,BSTAR,MEAN_MOTION_DOT,MEAN_MOTION_DDOT,TLE_LINE0,TLE_LINE1,TLE_LINE2,SEMIMAJOR_AXIS,PERIOD,APOGEE,PERIGEE,DECAYED
52558.0,STARLINK-3954,PAYLOAD,2022-12-15 12:27:21,15.08841722,0.0002753,53.2177,17.1101,28.1667,331.9474,0.0001137,1.522e-05,0.0,0 STARLINK-3954,1 52558U 22051AB  22349.51899384  .00001522  00000-0  11370-3 0  9997,2 52558  53.2177  17.1101 0002753  28.1667 331.9474 15.08841722 33410,6917.875,95.437,541.645,537.836,0.0
52558.0,STARLINK-3954,PAYLOAD,2022-12-15 18:48:53,15.08839586,0.0002793,53.2179,15.9208,30.3722,329.7431,3.6983e-05,3e-06,0.0,0 STARLINK-3954,1 52558U 22051AB  22349.78395480  .00000300  00000-0  36983-4 0  9995,2 52558  53.2179  15.9208 0002793  30.3722 329.7431 15.08839586 33454,6917.882,95.438,541.679,537.814,0.0
52558.0,STARLINK-3954,PAYLOAD,2022-12-16 05:56:35,15.08843156,0.0002716,53.2178,13.8392,29.5487,330.5658,0.00012082,1.635e-05,0.0,0 STARLINK-3954,1 52558U 22051AB  22350.24763459  .00001635  00000-0  12082-3 0  9998,2 52558  53.2178  13.8392 0002716  29.5487 330.5658 15.08843156 33591,6917.871,95.437,541.615,537.857,0.0
52558.0,STARLINK-3954,PAYLOAD,2022-12-16 10:42:45,15.08840467,0.0002722,53.2178,12.9472,29.9541,330.1607,8.1055e-05,1.002e-05,0.0,0 STARLINK-3954,1 52558U 22051AB  22350.44635576  .00001002  00000-0  81055-4 0  9993,2 52558  53.2178  12.9472 0002722  29.9541 330.1607 15.08840467 33550,6917.879,95.438,541.627,537.861,0.0
52558.0,STARLINK-3954,PAYLOAD,2022-12-17 02:36:36,15.08835981,0.0002767,53.2177,9.9732,30.34800000000001,329.7672,3.4781e-05,2.65e-06,0.0,0 STARLINK-3954,1 52558U 22051AB  22351.10875956  .00000265  00000-0  34781-4 0  9999,2 52558  53.2177   9.9732 0002767  30.3480 329.7672 15.08835981 33721,6917.893,95.438,541.672,537.8430000000002,0.0
52558.0,STARLINK-3954,PAYLOAD,2022-12-17 10:33:32,15.08839399,0.0002761,53.2175,8.4868,30.2958,329.8194,9.1699e-05,1.171e-05,0.0,0 STARLINK-3954,1 52558U 22051AB  22351.43995933  .00001171  00000-0  91699-4 0  9991,2 52558  53.2175   8.4868 0002761  30.2958 329.8194 15.08839399 33701,6917.882,95.438,541.6569999999998,537.837,0.0
52558.0,STARLINK-3954,PAYLOAD,2022-12-17 18:30:28,15.08838359,0.0002817,53.2177,7.0,31.2024,328.9135,0.00012789,1.747e-05,0.0,0 STARLINK-3954,1 52558U 22051AB  22351.77116117  .00001747  00000-0  12789-3 0  9998,2 52558  53.2177   7.0000 0002817  31.2024 328.9135 15.08838359 33758,6917.885,95.438,541.6990000000002,537.802,0.0
52558.0,STARLINK-3954,PAYLOAD,2022-12-18 04:02:47,15.08838611,0.0002816,53.2174,5.2156,31.6482,328.4679,0.00014198,1.972e-05,0.0,0 STARLINK-3954,1 52558U 22051AB  22352.16860246  .00001972  00000-0  14198-3 0  9997,2 52558  53.2174   5.2156 0002816  31.6482 328.4679 15.08838611 33881,6917.885,95.438,541.698,537.802,0.0
52558.0,STARLINK-3954,PAYLOAD,2022-12-18 10:24:20,15.08833704,0.0002706,53.2177,4.0278,33.1711,326.945,1.268e-05,-8.7e-07,0.0,0 STARLINK-3954,1 52558U 22051AB  22352.43356717 -.00000087  00000-0  12680-4 0  9992,2 52558  53.2177   4.0278 0002706  33.1711 326.9450 15.08833704 33851,6917.9,95.438,541.637,537.893,0.0
52558.0,STARLINK-3954,PAYLOAD,2022-12-18 11:59:43,15.08830901,0.0002781,53.2172,3.731,27.8412,332.2729,0.00012165,1.648e-05,0.0,0 STARLINK-3954,1 52558U 22051AB  22352.49980875  .00001648  00000-0  12165-3 0  9996,2 52558  53.2172   3.7310 0002781  27.8412 332.2729 15.08830901 33934,6917.908,95.438,541.697,537.849,0.0
52558.0,STARLINK-3954,PAYLOAD,2022-12-18 18:21:15,15.08834592,0.0002793,53.2172,2.5412,30.3714,329.744,0.00010913,1.449e-05,0.0,0 STARLINK-3954,1 52558U 22051AB  22352.76476816  .00001449  00000-0  10913-3 0  9999,2 52558  53.2172   2.5412 0002793  30.3714 329.7440 15.08834592 33909,6917.897,95.438,541.694,537.83,0.0
52558.0,STARLINK-3954,PAYLOAD,2022-12-19 07:04:20,15.08845798,0.0002841,53.2176,0.1611,30.1202,329.9953,0.00032627,4.909e-05,0.0,0 STARLINK-3954,1 52558U 22051AB  22353.29468522  .00004909  00000-0  32627-3 0  9993,2 52558  53.2176   0.1611 0002841  30.1202 329.9953 15.08845798 34050,6917.863,95.437,541.693,537.762,0.0
52558.0,STARLINK-3954,PAYLOAD,2022-12-19 18:12:02,15.08847297,0.0002833999999999,53.2174,358.0798,29.6771,330.4381,0.00038086,5.78e-05,0.0,0 STARLINK-3954,1 52558U 22051AB  22353.75836564  .00005780  00000-0  38086-3 0  9992,2 52558  53.2174 358.0798 0002834  29.6771 330.4381 15.08847297 34053,6917.858,95.437,541.684,537.763,0.0
52558.0,STARLINK-3954,PAYLOAD,2022-12-20 08:30:30,15.08861285,0.0002901999999999,53.2175,355.4038,28.5276,331.5875,0.00045846,7.020000000000001e-05,0.0,0 STARLINK-3954,1 52558U 22051AB  22354.35451622  .00007020  00000-0  45846-3 0  9998,2 52558  53.2175 355.4038 0002902  28.5276 331.5875 15.08861285 34217,6917.815,95.436,541.688,537.673,0.0
52558.0,STARLINK-3954,PAYLOAD,2022-12-21 01:59:44,15.08846732,0.0002723999999999,53.2176,352.1331,23.9844,336.1274,2.9056e-05,1.74e-06,0.0,0 STARLINK-3954,1 52558U 22051AB  22355.08315624  .00000174  00000-0  29056-4 0  9999,2 52558  53.2176 352.1331 0002724  23.9844 336.1274 15.08846732 34326,6917.86,95.437,541.609,537.84,0.0
52558.0,STARLINK-3954,PAYLOAD,2022-12-21 06:45:54,15.08832969,0.0002805,53.2172,351.24,29.2462,330.8687,-0.0002744,-4.652e-05,0.0,0 STARLINK-3954,1 52558U 22051AB  22355.28187990 -.00004652  00000-0 -27440-3 0  9995,2 52558  53.2172 351.2400 0002805  29.2462 330.8687 15.08832969 34353,6917.901999999999,95.438,541.707,537.826,0.0
52558.0,STARLINK-3954,PAYLOAD,2022-12-22 06:36:42,15.08829796,0.0002734,53.2174,346.7792,27.6835,332.4302,-1.5931e-05,-5.42e-06,0.0,0 STARLINK-3954,1 52558U 22051AB  22356.27548740 -.00000542  00000-0 -15931-4 0  9996,2 52558  53.2174 346.7792 0002734  27.6835 332.4302 15.08829796 34430,6917.9119999999975,95.438,541.668,537.885,0.0
52558.0,STARLINK-3954,PAYLOAD,2022-12-22 16:09:00,15.08837334,0.0002746,53.2177,344.9948,27.3884,332.7253,0.00016963,2.412e-05,0.0,0 STARLINK-3954,1 52558U 22051AB  22356.67292751  .00002412  00000-0  16963-3 0  9999,2 52558  53.2177 344.9948 0002746  27.3884 332.7253 15.08837334 34569,6917.889,95.438,541.653,537.854,0.0
52558.0,STARLINK-3954,PAYLOAD,2022-12-23 09:38:15,15.08834844,0.0002708,53.218,341.724,28.3354,331.7785,0.00018839,2.711e-05,0.0,0 STARLINK-3954,1 52558U 22051AB  22357.40157355  .00002711  00000-0  18839-3 0  9997,2 52558  53.2180 341.7240 0002708  28.3354 331.7785 15.08834844 34678,6917.896,95.438,541.635,537.888,0.0
52558.0,STARLINK-3954,PAYLOAD,2022-12-23 15:59:48,15.08833492,0.0002715,53.2183,340.5338,25.5493,334.5633,6.407199999999999e-05,7.31e-06,0.0,0 STARLINK-3954,1 52558U 22051AB  22357.66653477  .00000731  00000-0  64072-4 0  9992,2 52558  53.2183 340.5338 0002715  25.5493 334.5633 15.08833492 34645,6917.9,95.438,541.643,537.887,0.0
52558.0,STARLINK-3954,PAYLOAD,2022-12-24 07:53:40,15.08840535,0.000284,53.2176,337.5606,29.0783,331.0366,0.00023055,3.383e-05,0.0,0 STARLINK-3954,1 52558U 22051AB  22358.32893579  .00003383  00000-0  23055-3 0  9996,2 52558  53.2176 337.5606 0002840  29.0783 331.0366 15.08840535 34743,6917.879,95.438,541.7080000000002,537.779,0.0
52558.0,STARLINK-3954,PAYLOAD,2022-12-24 15:50:35,15.08851254,0.0002819,53.2179,336.0739,29.5859,330.5292,0.0003563,5.389e-05,0.0,0 STARLINK-3954,1 52558U 22051AB  22358.66013092  .00005389  00000-0  35630-3 0  9997,2 52558  53.2179 336.0739 0002819  29.5859 330.5292 15.08851254 34799,6917.846,95.437,541.661,537.761,0.0
52558.0,STARLINK-3954,PAYLOAD,2022-12-24 22:12:07,15.08848981,0.0002826,53.2181,334.8849,31.3177,328.7983,0.00028256,4.213e-05,0.0,0 STARLINK-3954,1 52558U 22051AB  22358.92509142  .00004213  00000-0  28256-3 0  9993,2 52558  53.2181 334.8849 0002826  31.3177 328.7983 15.08848981 34904,6917.853,95.437,541.673,537.763,0.0
52558.0,STARLINK-3954,PAYLOAD,2022-12-25 10:55:13,15.08842381,0.000298,53.2181,332.5062,26.2634,333.8508,8.4677e-05,1.059e-05,0.0,0 STARLINK-3954,1 52558U 22051AB  22359.45501276  .00001059  00000-0  84677-4 0  9997,2 52558  53.2181 332.5062 0002980  26.2634 333.8508 15.08842381 34984,6917.873000000001,95.437,541.8,537.677,0.0
52558.0,STARLINK-3954,PAYLOAD,2022-12-25 22:02:55,15.08840596,0.0003089,53.2181,330.4253,26.977,333.1382,7.571100000000001e-05,9.17e-06,0.0,0 STARLINK-3954,1 52558U 22051AB  22359.91869423  .00000917  00000-0  75711-4 0  9990,2 52558  53.2181 330.4253 0003089  26.9770 333.1382 15.08840596 34981,6917.879,95.438,541.88,537.607,0.0
52558.0,STARLINK-3954,PAYLOAD,2022-12-26 09:10:37,15.08842732,0.000274,53.2179,328.3429,27.773000000000003,332.3408,6.941199999999999e-05,8.16e-06,0.0,0 STARLINK-3954,1 52558U 22051AB  22360.38237381  .00000816  00000-0  69412-4 0  9994,2 52558  53.2179 328.3429 0002740  27.7730 332.3408 15.08842732 35050,6917.871999999999,95.437,541.633,537.842,0.0
52558.0,STARLINK-3954,PAYLOAD,2022-12-26 21:53:42,15.08844176,0.0002722,53.2179,325.964,29.1209,330.9934,0.0001088,1.444e-05,0.0,0 STARLINK-3954,1 52558U 22051AB  22360.91229246  .00001444  00000-0  10880-3 0  9996,2 52558  53.2179 325.9640 0002722  29.1209 330.9934 15.08844176 35204,6917.868,95.437,541.616,537.85,0.0
52558.0,STARLINK-3954,PAYLOAD,2022-12-27 09:01:23,15.08856513,0.0002811,53.2179,323.8828,24.0695,336.0428,0.00025366,3.753e-05,0.0,0 STARLINK-3954,1 52558U 22051AB  22361.37596488  .00003753  00000-0  25366-3 0  9992,2 52558  53.2179 323.8828 0002811  24.0695 336.0428 15.08856513 35271,6917.83,95.437,541.64,537.75,0.0
52558.0,STARLINK-3954,PAYLOAD,2022-12-28 02:30:37,15.0886139,0.0002741,53.2176,320.6118,28.0354,332.0785,0.00036687,5.559e-05,0.0,0 STARLINK-3954,1 52558U 22051AB  22362.10459803  .00005559  00000-0  36687-3 0  9997,2 52558  53.2176 320.6118 0002741  28.0354 332.0785 15.08861390 35319,6917.815,95.436,541.576,537.784,0.0
